1 45361U 20019B   23256.30521744  .00001657  00000-0  13008-3 0  9999
2 45361  53.0530 264.5160 0001490  93.1944 266.9215 15.06399980193098
1 45361U 20019B   23256.43791075  .00001064  00000-0  90338-4 0  9993
2 45361  53.0530 263.9197 0001659 101.9246 258.1929 15.06399014193117
1 45361U 20019B   23257.43309593  .00003751  00000-0  27046-3 0  9994
2 45361  53.0531 259.4518 0001638 102.6633 257.4539 15.06421092193267
1 45361U 20019B   23257.43309593  .00003751  00000-0  27046-3 0  9994
2 45361  53.0531 259.4518 0001638 102.6633 257.4539 15.06421092193267
1 45361U 20019B   23257.69849080  .00001147  00000-0  95899-4 0  9991
2 45361  53.0537 258.2554 0001713  79.0099 281.1083 15.06404723193302
1 45361U 20019B   23257.69849080  .00001147  00000-0  95899-4 0  9991
2 45361  53.0537 258.2554 0001713  79.0099 281.1083 15.06404723193302
1 45361U 20019B   23258.16292438 -.00002886  00000-0 -17499-3 0  9995
2 45361  53.0534 256.1775 0001615 103.1631 256.9538 15.06391915193373
1 45361U 20019B   23258.22927050 -.00003729  00000-0 -23164-3 0  9990
2 45361  53.0536 255.8798 0001560 102.8351 257.2812 15.06390827193381
1 45361U 20019B   23259.35717037  .00011115  00000-0  76376-3 0  9996
2 45361  53.0536 250.8175 0001450 103.6248 256.4903 15.06406035193557
1 45361U 20019B   23259.42351658  .00009771  00000-0  67380-3 0  9997
2 45361  53.0536 250.5187 0001455 102.4657 257.6495 15.06406505193565
1 45361U 20019B   23259.68890645 -.00000345  00000-0 -42390-5 0  9995
2 45361  53.0539 249.3229 0001593  86.8321 273.2850 15.06396760193602
1 45361U 20019B   23260.28604103  .00003930  00000-0  28270-3 0  9995
2 45361  53.0539 246.6451 0001453  91.9819 268.1337 15.06382734193691
1 45361U 20019B   23260.28604103  .00003930  00000-0  28270-3 0  9995
2 45361  53.0539 246.6451 0001453  91.9819 268.1337 15.06382734193691
1 45361U 20019B   23260.68411506  .00003596  00000-0  26020-3 0  9991
2 45361  53.0542 244.8599 0001466  90.6675 269.4482 15.06400226193757
1 45361U 20019B   23261.21489086  .00003224  00000-0  23520-3 0  9999
2 45361  53.0536 242.4748 0001340  94.6090 265.5052 15.06399667193831
1 45361U 20019B   23261.67932703 -.00000453  00000-0 -11538-4 0  9998
2 45361  53.0541 240.3901 0001033  91.6822 268.4286 15.06385112193903
1 45361U 20019B   23261.67932703 -.00000453  00000-0 -11538-4 0  9998
2 45361  53.0541 240.3901 0001033  91.6822 268.4286 15.06385112193903
1 45361U 20019B   23262.07741979 -.00000383  00000-0 -68475-5 0  9991
2 45361  53.0533 238.6026 0001389  94.8421 265.2726 15.06376040193966
1 45361U 20019B   23263.20526805  .00006312  00000-0  44187-3 0  9994
2 45361  53.0546 233.5400 0001445  97.2462 262.8691 15.06432339194133
1 45361U 20019B   23263.93511109  .00000636  00000-0  61594-4 0  9990
2 45361  53.0535 230.2607 0001692 107.3205 252.7969 15.06396709194244
1 45361U 20019B   23264.06781582 -.00004100  00000-0 -25667-3 0  9991
2 45361  53.0542 229.6676 0001263  85.2919 274.8215 15.06375864194260
1 45361U 20019B   23264.20051406 -.00003186  00000-0 -19521-3 0  9997
2 45361  53.0541 229.0735 0001447  87.8171 272.2984 15.06380745194282
1 45361U 20019B   23265.19570337  .00002316  00000-0  17431-3 0  9995
2 45361  53.0542 224.6058 0001180  83.0498 277.0625 15.06402500194432
1 45361U 20019B   23266.12457300  .00005181  00000-0  36648-3 0  9997
2 45361  53.0540 220.4369 0001208  79.3575 280.7549 15.06393891194577
1 45361U 20019B   23266.25726452  .00008327  00000-0  57719-3 0  9995
2 45361  53.0536 219.8406 0001182  77.9890 282.1231 15.06403511194598
1 45361U 20019B   23266.25726452  .00008327  00000-0  57719-3 0  9995
2 45361  53.0536 219.8406 0001182  77.9890 282.1231 15.06403511194598
1 45361U 20019B   23267.11975371  .00023135  00000-0  15648-2 0  9995
2 45361  53.0532 215.9684 0001185  83.1073 277.0051 15.06450795194728
1 45361U 20019B   23267.25244110  .00024578  00000-0  16604-2 0  9995
2 45361  53.0529 215.3731 0001211  81.5064 278.6062 15.06462212194741
1 45361U 20019B   23267.84957462  .00013208  00000-0  90401-3 0  9997
2 45361  53.0526 212.6905 0001628  83.6943 276.4231 15.06395777194837
1 45361U 20019B   23268.11496783  .00026200  00000-0  17723-2 0  9993
2 45361  53.0524 211.5003 0001160  58.7361 301.3742 15.06378807194874
1 45361U 20019B   23268.11496783  .00026200  00000-0  17723-2 0  9993
2 45361  53.0524 211.5003 0001160  58.7361 301.3742 15.06378807194874
1 45361U 20019B   23268.84477309  .00049482  00000-0  33128-2 0  9990
2 45361  53.0528 208.2235 0001259  67.5161 292.5961 15.06453696194989
1 45361U 20019B   23269.11016622 -.00019059  00000-0 -12643-2 0  9996
2 45361  53.0532 207.0311 0001296  77.8331 282.2803 15.06392961195024
1 45361U 20019B   23269.11016622 -.00019059  00000-0 -12643-2 0  9996
2 45361  53.0532 207.0311 0001296  77.8331 282.2803 15.06392961195024
1 45361U 20019B   23269.84000253  .00044109  00000-0  29624-2 0  9998
2 45361  53.0537 203.7558 0001554  90.9581 269.1586 15.06390469195130
1 45361U 20019B   23270.10539380  .00016825  00000-0  11464-2 0  9994
2 45361  53.0539 202.5651 0001465  83.8627 276.2529 15.06378109195173
1 45361U 20019B   23270.50347478  .00019344  00000-0  13140-2 0  9995
2 45361  53.0546 200.7797 0001530  92.6268 267.4896 15.06399278195230
1 45361U 20019B   23270.50347478  .00019344  00000-0  13140-2 0  9995
2 45361  53.0546 200.7797 0001530  92.6268 267.4896 15.06399278195230
1 45361U 20019B   23271.16692470  .00022075  00000-0  14942-2 0  9999
2 45361  53.0544 197.7982 0001380  85.0019 275.1128 15.06450212195333
1 45361U 20019B   23271.76405313  .00016963  00000-0  11546-2 0  9999
2 45361  53.0545 195.1185 0002144  81.7070 278.4162 15.06411126195425
1 45361U 20019B   23271.76405313  .00016963  00000-0  11546-2 0  9999
2 45361  53.0545 195.1185 0002144  81.7070 278.4162 15.06411126195425
1 45361U 20019B   23272.16213330  .00023075  00000-0  15631-2 0  9991
2 45361  53.0546 193.3296 0000921 219.7180 140.3742 15.06396297195483
1 45361U 20019B   23273.09098927  .00032557  00000-0  21920-2 0  9990
2 45361  53.0542 189.1619 0001497  71.6948 288.4203 15.06442085195626
1 45361U 20019B   23273.48907154  .00011771  00000-0  80760-3 0  9997
2 45361  53.0544 187.3762 0001647  87.4650 272.6528 15.06408893195689
1 45361U 20019B   23273.75446724  .00010019  00000-0  69059-3 0  9990
2 45361  53.0533 186.1866 0002858  84.3892 275.7423 15.06396513195726
1 45361U 20019B   23274.01985828  .00022006  00000-0  14926-2 0  9994
2 45361  53.0537 184.9929 0001327 101.3106 258.8032 15.06375498195765
1 45361U 20019B   23274.48428761  .00038915  00000-0  26161-2 0  9993
2 45361  53.0534 182.9074 0001494 103.1818 256.9338 15.06413084195836
1 45361U 20019B   23274.48428761  .00038915  00000-0  26161-2 0  9993
2 45361  53.0534 182.9074 0001494 103.1818 256.9338 15.06413084195836
1 45361U 20019B   23274.88235890  .00037913  00000-0  25473-2 0  9998
2 45361  53.0538 181.1205 0001468 104.1871 255.9281 15.06446473195898
1 45361U 20019B   23275.87756399  .00011176  00000-0  76832-3 0  9999
2 45361  53.0532 176.6519 0001555  81.1150 279.0015 15.06382801196044
1 45361U 20019B   23275.87756399  .00011176  00000-0  76832-3 0  9999
2 45361  53.0532 176.6519 0001555  81.1150 279.0015 15.06382801196044
1 45361U 20019B   23276.14295798  .00021426  00000-0  14538-2 0  9994
2 45361  53.0542 175.4597 0001505  70.6500 289.4652 15.06378365196081
1 45361U 20019B   23276.67372982  .00029318  00000-0  19781-2 0  9996
2 45361  53.0533 173.0787 0001271  85.8762 274.2373 15.06416263196165
1 45361U 20019B   23276.93911097  .00030536  00000-0  20580-2 0  9994
2 45361  53.0532 171.8875 0001319  78.5376 281.5761 15.06436793196208
1 45361U 20019B   23277.40353438  .00015086  00000-0  10288-2 0  9993
2 45361  53.0530 169.8023 0001330 100.5037 259.6102 15.06424203196276
1 45361U 20019B   23277.40353438  .00015086  00000-0  10288-2 0  9993
2 45361  53.0530 169.8023 0001330 100.5037 259.6102 15.06424203196276
1 45361U 20019B   23277.93431427  .00027080  00000-0  18300-2 0  9996
2 45361  53.0528 167.4201 0001335 112.4202 247.6928 15.06397624196354
1 45361U 20019B   23278.13335560  .00042629  00000-0  28626-2 0  9998
2 45361  53.0528 166.5264 0001316 108.2022 251.9110 15.06411795196385
1 45361U 20019B   23278.39874352  .00036274  00000-0  24408-2 0  9996
2 45361  53.0519 165.3325 0001197  91.7127 268.3999 15.06412318196423
1 45361U 20019B   23278.39874352  .00036274  00000-0  24408-2 0  9996
2 45361  53.0519 165.3325 0001197  91.7127 268.3999 15.06412318196423
1 45361U 20019B   23278.86317073  .00016783  00000-0  11425-2 0  9998
2 45361  53.0527 163.2513 0001550  99.6048 260.5116 15.06412410196495
1 45361U 20019B   23278.92951724  .00009431  00000-0  65102-3 0  9996
2 45361  53.0520 162.9512 0001460  92.5906 267.5250 15.06407703196505
1 45361U 20019B   23279.39395597 -.00004298  00000-0 -26993-3 0  9991
2 45361  53.0526 160.8661 0002362  82.3534 277.7723 15.06379079196578
1 45361U 20019B   23279.39395597 -.00004298  00000-0 -26993-3 0  9991
2 45361  53.0526 160.8661 0002362  82.3534 277.7723 15.06379079196578
1 45361U 20019B   23279.92473693  .00002486  00000-0  18586-3 0  9998
2 45361  53.0516 158.4842 0000831  89.0396 271.0688 15.06374718196651
1 45361U 20019B   23279.99108752  .00043983  00000-0  29546-2 0  9990
2 45361  53.0522 158.1871 0001205  82.9274 277.1851 15.06383415196664
1 45361U 20019B   23280.38916775  .00046587  00000-0  31244-2 0  9998
2 45361  53.0522 156.3996 0001214  83.9860 276.1267 15.06417813196721
1 45361U 20019B   23280.85358581  .00035401  00000-0  23807-2 0  9994
2 45361  53.0522 154.3153 0001223  82.1131 277.9997 15.06445313196798
1 45361U 20019B   23280.91993048  .00035990  00000-0  24195-2 0  9998
2 45361  53.0527 154.0174 0001195  81.4009 278.7116 15.06449934196804
1 45361U 20019B   23281.38435318  .00021841  00000-0  14791-2 0  9992
2 45361  53.0528 151.9320 0001446  91.4526 268.6628 15.06437356196876
1 45361U 20019B   23281.38435318  .00021841  00000-0  14791-2 0  9992
2 45361  53.0528 151.9320 0001446  91.4526 268.6628 15.06437356196876
